[{"OBJECT_NAME":"STARLINK-30758","OBJECT_ID":"2023-162R","EPOCH":"2026-03-09T13:08:07.564128","MEAN_MOTION":15.26920058,"ECCENTRICITY":0.0002801,"INCLINATION":43.0036,"RA_OF_ASC_NODE":130.0263,"ARG_OF_PERICENTER":273.5061,"MEAN_ANOMALY":86.547,"EPHEMERIS_TYPE":0,"CLASSIFICATION_TYPE":"U","NORAD_CAT_ID":58133,"ELEMENT_SET_NO":999,"REV_AT_EPOCH":13232,"BSTAR":0.0014419,"MEAN_MOTION_DOT":0.00038835,"MEAN_MOTION_DDOT":0},{"OBJECT_NAME":"FLOCK 4G-26","OBJECT_ID":"2025-009AA","EPOCH":"2026-03-09T19:19:02.910720","MEAN_MOTION":15.27281631,"ECCENTRICITY":0.0001988,"INCLINATION":97.4054,"RA_OF_ASC_NODE":151.3913,"ARG_OF_PERICENTER":299.1273,"MEAN_ANOMALY":60.9767,"EPHEMERIS_TYPE":0,"CLASSIFICATION_TYPE":"U","NORAD_CAT_ID":62633,"ELEMENT_SET_NO":999,"REV_AT_EPOCH":6373,"BSTAR":0.00042468806,"MEAN_MOTION_DOT":0.00011283,"MEAN_MOTION_DDOT":0}]
