STARLINK-30758          
1 58133U 23162R   26068.54730977  .00038835  00000+0  14419-2 0  9995
2 58133  43.0036 130.0263 0002801 273.5061  86.5470 15.26920058132327
FLOCK 4G-26             
1 62633U 25009AA  26068.80489479  .00011283  00000+0  42469-3 0  9999
2 62633  97.4054 151.3913 0001988 299.1273  60.9767 15.27281631 63733
